{
 "generated_at": "2026-06-28T08:21:54Z",
 "sources": [
  {
   "name": "CelesTrak",
   "url": "https://celestrak.org/NORAD/elements/",
   "license": "frei verfügbar; Attribution. Ursprünglich USSPACECOM/Space-Track."
  },
  {
   "name": "GCAT (J. McDowell, planet4589.org)",
   "url": "https://planet4589.org/space/gcat/",
   "license": "CC-BY 4.0"
  }
 ],
 "satellites": [
  {
   "norad": 68996,
   "name": "ICEYE-X82",
   "intl": "2026-100S",
   "group": "sar",
   "gcat": {
    "class": "B",
    "category": "IMG-R",
    "owner": "ICEYE",
    "state": "FI"
   },
   "omm": {
    "OBJECT_NAME": "ICEYE-X82",
    "OBJECT_ID": "2026-100S",
    "EPOCH": "2026-06-27T23:00:57.200832",
    "MEAN_MOTION": 14.91350442,
    "ECCENTRICITY": 0.00057616,
    "INCLINATION": 97.7357,
    "RA_OF_ASC_NODE": 76.1716,
    "ARG_OF_PERICENTER": 104.7885,
    "MEAN_ANOMALY": 255.3972,
    "EPHEMERIS_TYPE": 0,
    "CLASSIFICATION_TYPE": "U",
    "NORAD_CAT_ID": 68996,
    "ELEMENT_SET_NO": 999,
    "REV_AT_EPOCH": 830,
    "BSTAR": 0.00021642005,
    "MEAN_MOTION_DOT": 0.00002103,
    "MEAN_MOTION_DDOT": 0
   }
  },
  {
   "norad": 39216,
   "name": "INSAT-3D",
   "intl": "2013-038B",
   "group": "weather",
   "gcat": {
    "class": "C",
    "category": "MET",
    "owner": "ISRO",
    "state": "IN"
   },
   "omm": {
    "OBJECT_NAME": "INSAT-3D",
    "OBJECT_ID": "2013-038B",
    "EPOCH": "2026-06-27T21:40:38.421408",
    "MEAN_MOTION": 1.00271347,
    "ECCENTRICITY": 0.00011552,
    "INCLINATION": 1.9532,
    "RA_OF_ASC_NODE": 82.4183,
    "ARG_OF_PERICENTER": 4.902,
    "MEAN_ANOMALY": 283.3667,
    "EPHEMERIS_TYPE": 0,
    "CLASSIFICATION_TYPE": "U",
    "NORAD_CAT_ID": 39216,
    "ELEMENT_SET_NO": 999,
    "REV_AT_EPOCH": 4718,
    "BSTAR": 0,
    "MEAN_MOTION_DOT": -0.00000329,
    "MEAN_MOTION_DDOT": 0
   }
  },
  {
   "norad": 41752,
   "name": "INSAT-3DR",
   "intl": "2016-054A",
   "group": "weather",
   "gcat": {
    "class": "C",
    "category": "MET",
    "owner": "ISRO",
    "state": "IN"
   },
   "omm": {
    "OBJECT_NAME": "INSAT-3DR",
    "OBJECT_ID": "2016-054A",
    "EPOCH": "2026-06-27T18:21:45.980064",
    "MEAN_MOTION": 1.00272445,
    "ECCENTRICITY": 0.0010036,
    "INCLINATION": 0.1323,
    "RA_OF_ASC_NODE": 86.1351,
    "ARG_OF_PERICENTER": 186.7215,
    "MEAN_ANOMALY": 352.4288,
    "EPHEMERIS_TYPE": 0,
    "CLASSIFICATION_TYPE": "U",
    "NORAD_CAT_ID": 41752,
    "ELEMENT_SET_NO": 999,
    "REV_AT_EPOCH": 3592,
    "BSTAR": 0,
    "MEAN_MOTION_DOT": -6.5e-7,
    "MEAN_MOTION_DDOT": 0
   }
  },
  {
   "norad": 58990,
   "name": "INSAT-3DS",
   "intl": "2024-033A",
   "group": "weather",
   "gcat": {
    "class": "C",
    "category": "MET",
    "owner": "ISRO",
    "state": "IN"
   },
   "omm": {
    "OBJECT_NAME": "INSAT-3DS",
    "OBJECT_ID": "2024-033A",
    "EPOCH": "2026-06-27T19:05:46.866912",
    "MEAN_MOTION": 1.00270531,
    "ECCENTRICITY": 0.00014893,
    "INCLINATION": 0.0631,
    "RA_OF_ASC_NODE": 99.7881,
    "ARG_OF_PERICENTER": 346.8209,
    "MEAN_ANOMALY": 197.8056,
    "EPHEMERIS_TYPE": 0,
    "CLASSIFICATION_TYPE": "U",
    "NORAD_CAT_ID": 58990,
    "ELEMENT_SET_NO": 999,
    "REV_AT_EPOCH": 4717,
    "BSTAR": 0,
    "MEAN_MOTION_DOT": -0.00000144,
    "MEAN_MOTION_DDOT": 0
   }
  },
  {
   "norad": 61735,
   "name": "IONOSFERA-M 1",
   "intl": "2024-199A",
   "group": "resource",
   "gcat": {
    "class": "C",
    "category": "SCI",
    "owner": "VNIIEMI",
    "state": "RU"
   },
   "omm": {
    "OBJECT_NAME": "IONOSFERA-M 1",
    "OBJECT_ID": "2024-199A",
    "EPOCH": "2026-06-27T22:53:15.558720",
    "MEAN_MOTION": 14.2275614,
    "ECCENTRICITY": 0.00021598,
    "INCLINATION": 98.7161,
    "RA_OF_ASC_NODE": 52.0116,
    "ARG_OF_PERICENTER": 96.0167,
    "MEAN_ANOMALY": 264.1257,
    "EPHEMERIS_TYPE": 0,
    "CLASSIFICATION_TYPE": "U",
    "NORAD_CAT_ID": 61735,
    "ELEMENT_SET_NO": 999,
    "REV_AT_EPOCH": 12923,
    "BSTAR": 0.000044277054,
    "MEAN_MOTION_DOT": 5.5e-7,
    "MEAN_MOTION_DDOT": 0
   }
  },
  {
   "norad": 61736,
   "name": "IONOSFERA-M 2",
   "intl": "2024-199B",
   "group": "resource",
   "gcat": {
    "class": "C",
    "category": "SCI",
    "owner": "VNIIEMI",
    "state": "RU"
   },
   "omm": {
    "OBJECT_NAME": "IONOSFERA-M 2",
    "OBJECT_ID": "2024-199B",
    "EPOCH": "2026-06-27T22:01:20.270208",
    "MEAN_MOTION": 14.2275945,
    "ECCENTRICITY": 0.00005862,
    "INCLINATION": 98.7159,
    "RA_OF_ASC_NODE": 51.8864,
    "ARG_OF_PERICENTER": 40.633,
    "MEAN_ANOMALY": 319.4892,
    "EPHEMERIS_TYPE": 0,
    "CLASSIFICATION_TYPE": "U",
    "NORAD_CAT_ID": 61736,
    "ELEMENT_SET_NO": 999,
    "REV_AT_EPOCH": 13235,
    "BSTAR": 0.000045192047,
    "MEAN_MOTION_DOT": 5.7e-7,
    "MEAN_MOTION_DDOT": 0
   }
  },
  {
   "norad": 64876,
   "name": "IONOSFERA-M 3",
   "intl": "2025-155A",
   "group": "resource",
   "gcat": {
    "class": "C",
    "category": "SCI",
    "owner": "VNIIEMI",
    "state": "RU"
   },
   "omm": {
    "OBJECT_NAME": "IONOSFERA-M 3",
    "OBJECT_ID": "2025-155A",
    "EPOCH": "2026-06-27T22:40:39.646848",
    "MEAN_MOTION": 14.21488203,
    "ECCENTRICITY": 0.0001604,
    "INCLINATION": 98.6028,
    "RA_OF_ASC_NODE": 140.5793,
    "ARG_OF_PERICENTER": 138.9281,
    "MEAN_ANOMALY": 221.2018,
    "EPHEMERIS_TYPE": 0,
    "CLASSIFICATION_TYPE": "U",
    "NORAD_CAT_ID": 64876,
    "ELEMENT_SET_NO": 999,
    "REV_AT_EPOCH": 4793,
    "BSTAR": 0.000039157962,
    "MEAN_MOTION_DOT": 4.3e-7,
    "MEAN_MOTION_DDOT": 0
   }
  },
  {
   "norad": 64877,
   "name": "IONOSFERA-M 4",
   "intl": "2025-155B",
   "group": "resource",
   "gcat": {
    "class": "C",
    "category": "SCI",
    "owner": "VNIIEMI",
    "state": "RU"
   },
   "omm": {
    "OBJECT_NAME": "IONOSFERA-M 4",
    "OBJECT_ID": "2025-155B",
    "EPOCH": "2026-06-27T23:30:48.406752",
    "MEAN_MOTION": 14.21490584,
    "ECCENTRICITY": 0.00014165,
    "INCLINATION": 98.6027,
    "RA_OF_ASC_NODE": 140.5305,
    "ARG_OF_PERICENTER": 115.3561,
    "MEAN_ANOMALY": 244.7763,
    "EPHEMERIS_TYPE": 0,
    "CLASSIFICATION_TYPE": "U",
    "NORAD_CAT_ID": 64877,
    "ELEMENT_SET_NO": 999,
    "REV_AT_EPOCH": 4793,
    "BSTAR": 0.000042894143,
    "MEAN_MOTION_DOT": 5.1e-7,
    "MEAN_MOTION_DDOT": 0
   }
  },
  {
   "norad": 28649,
   "name": "IRS-P5 (CARTOSAT-1)",
   "intl": "2005-017A",
   "group": "resource",
   "gcat": {
    "class": null,
    "category": null,
    "owner": null,
    "state": null
   },
   "omm": {
    "OBJECT_NAME": "IRS-P5 (CARTOSAT-1)",
    "OBJECT_ID": "2005-017A",
    "EPOCH": "2026-06-27T19:34:25.692096",
    "MEAN_MOTION": 14.91075758,
    "ECCENTRICITY": 0.00022687,
    "INCLINATION": 97.5306,
    "RA_OF_ASC_NODE": 201.398,
    "ARG_OF_PERICENTER": 66.9185,
    "MEAN_ANOMALY": 293.2273,
    "EPHEMERIS_TYPE": 0,
    "CLASSIFICATION_TYPE": "U",
    "NORAD_CAT_ID": 28649,
    "ELEMENT_SET_NO": 999,
    "REV_AT_EPOCH": 14540,
    "BSTAR": 0.00015538829,
    "MEAN_MOTION_DOT": 0.00001486,
    "MEAN_MOTION_DDOT": 0
   }
  },
  {
   "norad": 41240,
   "name": "JASON-3",
   "intl": "2016-002A",
   "group": "resource",
   "gcat": {
    "class": "C",
    "category": "SCI/MET",
    "owner": "CNES/NOAA",
    "state": "F"
   },
   "omm": {
    "OBJECT_NAME": "JASON-3",
    "OBJECT_ID": "2016-002A",
    "EPOCH": "2026-06-27T22:54:02.981088",
    "MEAN_MOTION": 12.87623096,
    "ECCENTRICITY": 0.00083854,
    "INCLINATION": 66.0416,
    "RA_OF_ASC_NODE": 103.1997,
    "ARG_OF_PERICENTER": 272.2248,
    "MEAN_ANOMALY": 87.781,
    "EPHEMERIS_TYPE": 0,
    "CLASSIFICATION_TYPE": "U",
    "NORAD_CAT_ID": 41240,
    "ELEMENT_SET_NO": 999,
    "REV_AT_EPOCH": 48863,
    "BSTAR": -0.0000652997,
    "MEAN_MOTION_DOT": -7.9e-7,
    "MEAN_MOTION_DDOT": 0
   }
  },
  {
   "norad": 39731,
   "name": "KAZEOSAT 1",
   "intl": "2014-024A",
   "group": "resource",
   "gcat": {
    "class": "C",
    "category": "IMG",
    "owner": "KAZK",
    "state": "KZ"
   },
   "omm": {
    "OBJECT_NAME": "KAZEOSAT 1",
    "OBJECT_ID": "2014-024A",
    "EPOCH": "2026-06-27T23:37:36.498144",
    "MEAN_MOTION": 14.42083396,
    "ECCENTRICITY": 0.00012241,
    "INCLINATION": 98.3209,
    "RA_OF_ASC_NODE": 251.1633,
    "ARG_OF_PERICENTER": 75.8797,
    "MEAN_ANOMALY": 284.2529,
    "EPHEMERIS_TYPE": 0,
    "CLASSIFICATION_TYPE": "U",
    "NORAD_CAT_ID": 39731,
    "ELEMENT_SET_NO": 999,
    "REV_AT_EPOCH": 64011,
    "BSTAR": 0.000012911228,
    "MEAN_MOTION_DOT": 0,
    "MEAN_MOTION_DDOT": 0
   }
  },
  {
   "norad": 40010,
   "name": "KAZEOSAT 2",
   "intl": "2014-033A",
   "group": "resource",
   "gcat": {
    "class": "C",
    "category": "IMG",
    "owner": "KAZK",
    "state": "KZ"
   },
   "omm": {
    "OBJECT_NAME": "KAZEOSAT 2",
    "OBJECT_ID": "2014-033A",
    "EPOCH": "2026-06-27T22:34:00.822720",
    "MEAN_MOTION": 14.85482324,
    "ECCENTRICITY": 0.00070732,
    "INCLINATION": 97.5407,
    "RA_OF_ASC_NODE": 17.9845,
    "ARG_OF_PERICENTER": 289.0205,
    "MEAN_ANOMALY": 71.0244,
    "EPHEMERIS_TYPE": 0,
    "CLASSIFICATION_TYPE": "U",
    "NORAD_CAT_ID": 40010,
    "ELEMENT_SET_NO": 999,
    "REV_AT_EPOCH": 65055,
    "BSTAR": 0.000063227627,
    "MEAN_MOTION_DOT": 0.00000496,
    "MEAN_MOTION_DDOT": 0
   }
  },
  {
   "norad": 43783,
   "name": "KAZSTSAT",
   "intl": "2018-099AB",
   "group": "resource",
   "gcat": {
    "class": "B",
    "category": "IMG",
    "owner": "GHALAM",
    "state": "KZ"
   },
   "omm": {
    "OBJECT_NAME": "KAZSTSAT",
    "OBJECT_ID": "2018-099AB",
    "EPOCH": "2026-06-27T15:19:06.597120",
    "MEAN_MOTION": 14.99901651,
    "ECCENTRICITY": 0.00085447,
    "INCLINATION": 97.429,
    "RA_OF_ASC_NODE": 210.0926,
    "ARG_OF_PERICENTER": 41.0079,
    "MEAN_ANOMALY": 319.1786,
    "EPHEMERIS_TYPE": 0,
    "CLASSIFICATION_TYPE": "U",
    "NORAD_CAT_ID": 43783,
    "ELEMENT_SET_NO": 999,
    "REV_AT_EPOCH": 41287,
    "BSTAR": 0.0001591701,
    "MEAN_MOTION_DOT": 0.00001919,
    "MEAN_MOTION_DDOT": 0
   }
  }
 ]
}
